FLOCK 4BE-17            
1 60492U 24149AA  26195.18330337  .00010350  00000+0  25674-3 0  9997
2 60492  97.3777 278.7780 0004082 146.0709 214.0799 15.40551532106418
FLOCK 4BE-22            
1 60494U 24149AC  26195.20528316  .00009723  00000+0  23031-3 0  9995
2 60494  97.3737 279.0360 0004629 157.3175 202.8278 15.41966753106461
FLOCK 4BE-34            
1 60495U 24149AD  26195.15792840  .00010044  00000+0  23812-3 0  9990
2 60495  97.3785 279.8275 0004842 164.3719 195.7679 15.41930282106482
FLOCK 4BE-32            
1 60497U 24149AF  26195.17274985  .00011138  00000+0  25403-3 0  9992
2 60497  97.3723 279.4070 0004939 163.2828 196.8584 15.43063214106493
FLOCK 4BE-11            
1 60501U 24149AK  26195.15329501  .00011180  00000+0  24832-3 0  9993
2 60501  97.3703 279.6434 0004772 161.4068 198.7356 15.43853605106516
FLOCK 4BE-24            
1 60505U 24149AP  26195.20194153  .00012790  00000+0  28162-3 0  9994
2 60505  97.3716 279.9607 0005121 174.0171 186.1140 15.44075487106532
FLOCK 4BE-29            
1 60509U 24149AT  26195.19376376  .00028526  00000+0  59684-3 0  9992
2 60509  97.3816 281.4914 0003394 178.2968 181.8293 15.45422356106584
FLOCK 4BE-2             
1 60511U 24149AV  26195.16410477  .00045900  00000+0  66300-3 0  9991
2 60511  97.3834 283.2891 0005377 177.0226 183.1061 15.55809070106691
FLOCK 4BE-13            
1 60512U 24149AW  26194.75792343  .00008562  00000+0  19889-3 0  9994
2 60512  97.3725 279.4573 0004975 160.6063 199.5375 15.42590436106468
FLOCK 4BE-27            
1 60513U 24149AX  26195.18822733  .00005787  00000+0  17333-3 0  9998
2 60513  97.3827 277.0593 0003882 184.5793 175.5415 15.34905449106283
FLOCK 4BE-9             
1 60514U 24149AY  26195.16468446  .00009664  00000+0  23195-3 0  9995
2 60514  97.3791 279.7119 0003657 174.2676 185.8614 15.41575592106479
FLOCK 4BE-6             
1 60516U 24149BA  26195.15035331  .00008764  00000+0  21959-3 0  9995
2 60516  97.3792 279.0032 0004175 176.6437 183.4838 15.40297101106429
FLOCK 4BE-14            
1 60517U 24149BB  26195.17321478  .00010414  00000+0  24757-3 0  9992
2 60517  97.3696 279.1889 0005368 180.0128 180.1120 15.41833041106489
FLOCK 4BE-1             
1 60518U 24149BC  26195.16067632  .00011308  00000+0  25425-3 0  9997
2 60518  97.3782 280.5514 0005059 179.5414 180.5839 15.43486757106532
FLOCK 4BE-28            
1 60519U 24149BD  26195.19762514  .00030017  00000+0  61050-3 0  9994
2 60519  97.3755 281.4009 0004839 178.6916 181.4347 15.46236661106617
FLOCK 4BE-5             
1 60559U 24149CV  26195.17608541  .00009725  00000+0  23768-3 0  9991
2 60559  97.3851 279.4488 0003880 174.0671 186.0622 15.41023491106436
